<!DOCTYPE html PUBLIC "-//W3C//DTD XHTML 1.0 Strict//EN" "http://www.w3.org/TR/xhtml1/DTD/xhtml1-strict.dtd">
<html xmlns="http://www.w3.org/1999/xhtml">
<head>
<meta http-equiv="Content-Type" content="text/html; charset=iso-8859-1"/>
<title>404 - File Not Found.</title>
<style type="text/css">
<!--
body{margin:0;font-size:.7em;font-family:Verdana, Arial, Helvetica, sans-serif;background:#EEEEEE;}
fieldset{padding:0 15px 10px 15px;}
h1{font-size:2.4em;margin:0;color:#FFF;}
h2{font-size:1.7em;margin:0;color:#CC0000;}
h3{font-size:1.2em;margin:10px 0 0 0;color:#000000;}
#header{width:96%;margin:0 0 0 0;padding:6px 2% 6px 2%;font-family:"trebuchet MS", Verdana, sans-serif;color:#FFF;
background-color:#555555;}
#content{margin:0 0 0 2%;position:relative;}
.content-container{background:#FFF;width:96%;margin-top:8px;padding:10px;position:relative;}
-->
</style>
</head>
<body>
<div id="header"><h1>Server Error</h1></div>
<div id="content">
 <div class="content-container"><fieldset>
  <h2>404 - File Not Found.</h2>
  <h3>File not found for celestrak.org/NORAD/elements/active.txt.</h3>
  <h3>Please contact <a href="mailto:ts.kelso@celestrak.org">ts.kelso@celestrak.org</a> if you have other questions.</h3>
 </fieldset></div>
</div>
</body>
</html>
ECHOSTAR 18             
1 41592U 16039B   24056.18252293 -.00000284  00000+0  00000+0 0  9992
2 41592   0.0153 134.9375 0001551 197.0779 186.8600  1.00271477 28161
MUOS-5                  
1 41622U 16041A   24055.67321345 -.00000152  00000+0  00000+0 0  9991
2 41622   4.1505 297.2325 0192361 251.4070 102.6996  1.00274094 28621
TIANTONG-1 1            
1 41725U 16048A   24056.09459032 -.00000319  00000+0  00000+0 0  9999
2 41725   2.5046  25.7041 0007818 322.4146 301.7755  1.00274694 27812
JCSAT-16                
1 41729U 16050A   24055.95188251 -.00000254  00000+0  00000+0 0  9990
2 41729   0.0252 149.8640 0001607 283.2066 207.8744  1.00268228 27603
USA 270                 
1 41744U 16052A   24034.37488809 -.00000324  00000+0  00000+0 0  9992
2 41744   1.9684  88.2838 0000931 345.3645 298.3173  1.00419381 19459
USA 271                 
1 41745U 16052B   24055.26303762 -.00000104  00000+0  00000+0 0  9994
2 41745   1.9954  87.9746 0009115  14.5114 140.4899  0.99961589 10275
INTELSAT 36 (IS-36)     
1 41747U 16053A   24056.13692309 -.00000026  00000+0  00000+0 0  9995
2 41747   0.0211 118.9249 0001328 256.7464 256.6258  1.00270193 27489
INTELSAT 33E (IS-33E)   
1 41748U 16053B   24056.13518264  .00000047  00000+0  00000+0 0  9995
2 41748   0.0433 288.2552 0001537  42.5684 292.2928  1.00272736 27767
INSAT-3DR               
1 41752U 16054A   24056.06643476 -.00000078  00000+0  00000+0 0  9992
2 41752   0.0239 129.1948 0013300 151.3322 331.7959  1.00270074 27347
GSAT-18                 
1 41793U 16060A   24056.06643476 -.00000079  00000+0  00000+0 0  9995
2 41793   0.0623 280.8400 0001962 323.3797   8.0834  1.00272674 27068
SKY MUSTER 2 (NBN1B)    
1 41794U 16060B   24056.16785325 -.00000246  00000+0  00000+0 0  9993
2 41794   0.0202 152.4388 0001525 182.0325  25.2804  1.00268778 27128
HIMAWARI-9              
1 41836U 16064A   24055.84493848 -.00000278  00000+0  00000+0 0  9999
2 41836   0.0210 118.0653 0000971 214.4148 266.6501  1.00271006 26744
SHIJIAN-17 (SJ-17)      
1 41838U 16065A   24055.79861310 -.00000045  00000+0  00000+0 0  9991
2 41838   3.5955  82.7309 0004873 288.0142 238.4450  1.00276377 26758
GOES 16                 
1 41866U 16071A   24056.17991226 -.00000250  00000+0  00000+0 0  9990
2 41866   0.0907 274.1602 0001158  91.8987 138.0076  1.00270647 26642
TIANLIAN 1-04           
1 41869U 16072A   24055.80052759  .00000028  00000+0  00000+0 0  9994
2 41869   0.1607  93.3576 0023364  56.3628 109.3717  1.00273073 26857
WGS F8 (USA 272)        
1 41879U 16075A   24056.16785325 -.00000204  00000+0  00000+0 0  9997
2 41879   0.0187 105.4406 0000036 285.8739 333.4396  1.00270558 26476
FENGYUN 4A              
1 41882U 16077A   24055.92112000 -.00000332  00000+0  00000+0 0  9992
2 41882   0.1695  77.9099 0004710 334.2419 178.3767  1.00268893 26470
ECHOSTAR 19             
1 41893U 16079A   24056.21878047 -.00000140  00000+0  00000+0 0  9996
2 41893   0.0156 115.4509 0001977 227.3513 153.4065  1.00272506 26286
JCSAT-110A (JCSAT-15)   
1 41903U 16082A   24056.08938296 -.00000353  00000+0  00000+0 0  9996
2 41903   0.0022  62.3904 0001228 262.6780 331.5978  1.00271127 26321
STAR ONE D1             
1 41904U 16082B   24056.10655218 -.00000213  00000+0  00000+0 0  9995
2 41904   0.0387 268.2251 0001944  54.2549 146.3218  1.00271690 26336
TJS-2                   
1 41911U 17001A   24056.13648796 -.00000007  00000+0  00000+0 0  9992
2 41911   0.2827  82.0446 0003187 234.6565 313.3532  1.00273057 26262
SBIRS GEO-4 (USA 273)   
1 41937U 17004A   24055.88920368 -.00000145  00000+0  00000+0 0  9995
2 41937   1.4599 349.1201 0002549 341.5956  46.8216  1.00272115 26157
HISPASAT 36W-1          
1 41942U 17006A   24055.97297243 -.00000247  00000+0  00000+0 0  9995
2 41942   0.0172 314.0118 0001029  20.8040 133.7633  1.00272321 26075
TELKOM 3S               
1 41944U 17007A   24055.86785737 -.00000366  00000+0  00000+0 0  9998
2 41944   0.0157 109.0963 0002414 222.9220 252.6205  1.00272911 25681
INTELSAT 32E (IS-32E)   
1 41945U 17007B   24055.47023851 -.00000273  00000+0  00000+0 0  9995
2 41945   0.0146 109.5513 0000254 233.6860 296.6696  1.00273094 25769
ECHOSTAR 23             
1 42070U 17014A   24056.04285369 -.00000059  00000+0  00000+0 0  9993
2 42070   0.0131 119.3271 0001893 214.0454  86.5352  1.00272438 25491
WGS F9 (USA 275)        
1 42075U 17016A   24055.83446644 -.00000099  00000+0  00000+0 0  9995
2 42075   0.0084 153.1131 0000439 206.5954  82.8772  1.00273122 25474
SES-10                  
1 42432U 17017A   24056.23608833 -.00000274  00000+0  00000+0 0  9993
2 42432   0.0147  78.3986 0002606 253.1509 201.1164  1.00272997 25277
CHINASAT 16 (SJ-13)     
1 42662U 17018A   24055.57245119 -.00000356  00000+0  00000+0 0  9990
2 42662   0.0598  94.6329 0005334 203.7815 172.0983  1.00271226 25275
KOREASAT 7              
1 42691U 17023A   24055.35867549 -.00000366  00000+0  00000+0 0  9992
2 42691   0.0246 317.0764 0000781 337.2992 104.3436  1.00273398 24915
SGDC                    
1 42692U 17023B   24054.78244597 -.00000255  00000+0  00000+0 0  9998
2 42692   0.0171 101.9821 0002682 243.6677  14.3082  1.00270817 24942
GSAT-9                  
1 42695U 17024A   24054.78214765 -.00000291  00000+0  00000+0 0  9996
2 42695   0.1067 269.4539 0001889  85.5438 176.9865  1.00267208 24845
INMARSAT 5-F4           
1 42698U 17025A   24055.76125678  .00000072  00000+0  00000+0 0  9999
2 42698   0.0102 135.9428 0000443 226.6252 122.0800  1.00272697 24825
SES-15                  
1 42709U 17026A   24056.20072833  .00000058  00000+0  00000+0 0  9991
2 42709   0.0240  49.5505 0000431 281.0984 126.9830  1.00270044 25732
QZS-2 (MICHIBIKI-2)     
1 42738U 17028A   24055.60275493 -.00000138  00000+0  00000+0 0  9995
2 42738  40.7578 255.3782 0747758 270.1767 346.8919  1.00266592 24666
VIASAT-2                
1 42740U 17029A   24055.82297944 -.00000268  00000+0  00000+0 0  9992
2 42740   0.0298 249.8365 0001851 127.6459   3.0300  1.00270968 24728
EUTELSAT 172B           
1 42741U 17029B   24055.45151542 -.00000010  00000+0  00000+0 0  9990
2 42741   0.0643 156.1386 0000122 218.1202 114.0766  1.00270767 25275
GSAT-19                 
1 42747U 17031A   24055.81160479  .00000122  00000+0  00000+0 0  9991
2 42747   0.0530 293.2394 0004809  86.9553 113.9918  1.00271724 24689
ECHOSTAR 21             
1 42749U 17032A   24055.86924653  .00000063  00000+0  00000+0 0  9995
2 42749   2.7377 317.4449 0002531   8.4036 151.5434  1.00273947 24651
BULGARIASAT-1           
1 42801U 17038A   24055.88174216  .00000008  00000+0  00000+0 0  9993
2 42801   0.0493  96.5035 0002622 238.4030 138.6420  1.00270603 24383
HELLAS-SAT 3            
1 42814U 17040A   24056.13868907  .00000151  00000+0  00000+0 0  9995
2 42814   0.0616 352.0384 0004875   2.9161 248.4326  1.00270653 24405
GSAT-17                 
1 42815U 17040B   24055.92202112 -.00000261  00000+0  00000+0 0  9995
2 42815   0.0501 287.9539 0005138 353.3105 298.4459  1.00271100 24333
INTELSAT 35E (IS-35E)   
1 42818U 17041A   24056.23313420 -.00000240  00000+0  00000+0 0  9996
2 42818   0.0059 181.8727 0002385 160.7911 221.3343  1.00270809 24366
COSMOS 2520             
1 42907U 17046A   24056.20384348  .00000135  00000+0  00000+0 0  9996
2 42907   0.0263 106.2136 0000854 239.8492 286.8666  1.00273122 23935
TDRS 13                 
1 42915U 17047A   24056.19261756 -.00000100  00000+0  00000+0 0  9994
2 42915   3.7356 342.3198 0013298 106.3177 123.7214  1.00272564 23928
QZS-3 (MICHIBIKI-3)     
1 42917U 17048A   24055.90604999 -.00000351  00000+0  00000+0 0  9993
2 42917   0.0660 211.2689 0001313 120.9074 275.2953  1.00274734 23801
AMAZONAS 5              
1 42934U 17053A   24055.51927997 -.00000286  00000+0  00000+0 0  9998
2 42934   0.0076   4.2332 0005466 321.4433 314.1372  1.00266605 23587
ASIASAT 9               
1 42942U 17057A   24056.00438762 -.00000362  00000+0  00000+0 0  9998
2 42942   0.0117 123.6529 0002272 207.9375 306.4309  1.00270786 23489
INTELSAT 37E (IS-37E)   
1 42950U 17059A   24055.90495477 -.00000143  00000+0  00000+0 0  9990
2 42950   0.0126 117.6945 0002582 214.9935 129.3431  1.00272547 23617
BSAT-4A                 
1 42951U 17059B   24054.64778730 -.00000356  00000+0  00000+0 0  9993
2 42951   0.0620 305.0386 0004760  70.8098 120.1949  1.00270859 23334
QZS-4 (MICHIBIKI-4)     
1 42965U 17062A   24055.76507894 -.00000332  00000+0  00000+0 0  9991
2 42965  40.5644 354.2290 0750173 269.5079 304.7206  1.00286299 23359
